{
  "type": "FeatureCollection",
  "features": [
    {
      "type": "Feature",
      "properties": {
        "norad_id": 66396,
        "name": "STARLINK-35669",
        "group": "last-30-days",
        "lat": -26.70443382149631,
        "lon": 135.26652736456742,
        "alt_km": 420.9580336329045,
        "timestamp": "2025-12-06T14:35:35.908788+00:00",
        "meta_object_name": "STARLINK-35669",
        "meta_object_id": "2025-257S",
        "meta_epoch": "2025-12-05T14:27:24.793056",
        "meta_mean_motion": 15.49619062,
        "meta_eccentricity": 0.00015262,
        "meta_inclination": 53.1591,
        "meta_ra_of_asc_node": 297.9221,
        "meta_arg_of_pericenter": 110.2235,
        "meta_mean_anomaly": 249.8938,
        "meta_ephemeris_type": 0,
        "meta_classification_type": "U",
        "meta_norad_cat_id": 66396,
        "meta_element_set_no": 999,
        "meta_rev_at_epoch": 527,
        "meta_bstar": 0.0020340148,
        "meta_mean_motion_dot": 0.00115623,
        "meta_mean_motion_ddot": 0,
        "tle_line1": "1 66396U 25257S   25339.60237029  .00115623  00000+0  20340-2 0  9990",
        "tle_line2": "2 66396  53.1591 297.9221 0001526 110.2235 249.8938 15.49619062  5276"
      },
      "geometry": {
        "type": "Point",
        "coordinates": [
          135.26652736456742,
          -26.70443382149631
        ]
      }
    },
    {
      "type": "Feature",
      "properties": {
        "norad_id": 66397,
        "name": "STARLINK-35510",
        "group": "last-30-days",
        "lat": -14.55097211148699,
        "lon": 124.36565558864561,
        "alt_km": 439.89189909155266,
        "timestamp": "2025-12-06T14:35:35.908798+00:00",
        "meta_object_name": "STARLINK-35510",
        "meta_object_id": "2025-257T",
        "meta_epoch": "2025-12-06T08:00:01.999872",
        "meta_mean_motion": 15.44290943,
        "meta_eccentricity": 0.00012592,
        "meta_inclination": 53.159,
        "meta_ra_of_asc_node": 294.4465,
        "meta_arg_of_pericenter": 75.9621,
        "meta_mean_anomaly": 34.7935,
        "meta_ephemeris_type": 0,
        "meta_classification_type": "U",
        "meta_norad_cat_id": 66397,
        "meta_element_set_no": 999,
        "meta_rev_at_epoch": 546,
        "meta_bstar": -0.047938944,
        "meta_mean_motion_dot": -0.01999219,
        "meta_mean_motion_ddot": 0,
        "tle_line1": "1 66397U 25257T   25340.33335648 -.01999219  00000+0 -47939-1 0  9995",
        "tle_line2": "2 66397  53.1590 294.4465 0001259  75.9621  34.7935 15.44290943  5464"
      },
      "geometry": {
        "type": "Point",
        "coordinates": [
          124.36565558864561,
          -14.55097211148699
        ]
      }
    },
    {
      "type": "Feature",
      "properties": {
        "norad_id": 66398,
        "name": "STARLINK-35642",
        "group": "last-30-days",
        "lat": -26.4305990225666,
        "lon": 134.99064718856803,
        "alt_km": 424.987484190744,
        "timestamp": "2025-12-06T14:35:35.908808+00:00",
        "meta_object_name": "STARLINK-35642",
        "meta_object_id": "2025-257U",
        "meta_epoch": "2025-12-06T04:22:47.917920",
        "meta_mean_motion": 15.48674632,
        "meta_eccentricity": 9.202e-05,
        "meta_inclination": 53.1592,
        "meta_ra_of_asc_node": 295.1428,
        "meta_arg_of_pericenter": 161.1871,
        "meta_mean_anomaly": 198.9172,
        "meta_ephemeris_type": 0,
        "meta_classification_type": "U",
        "meta_norad_cat_id": 66398,
        "meta_element_set_no": 999,
        "meta_rev_at_epoch": 536,
        "meta_bstar": -0.0089627224,
        "meta_mean_motion_dot": -0.00460233,
        "meta_mean_motion_ddot": 0,
        "tle_line1": "1 66398U 25257U   25340.18249905 -.00460233  00000+0 -89627-2 0  9998",
        "tle_line2": "2 66398  53.1592 295.1428 0000920 161.1871 198.9172 15.48674632  5363"
      },
      "geometry": {
        "type": "Point",
        "coordinates": [
          134.99064718856803,
          -26.4305990225666
        ]
      }
    },
    {
      "type": "Feature",
      "properties": {
        "norad_id": 66399,
        "name": "STARLINK-35657",
        "group": "last-30-days",
        "lat": -29.518910067485102,
        "lon": 138.2219494168397,
        "alt_km": 420.12308117193334,
        "timestamp": "2025-12-06T14:35:35.908819+00:00",
        "meta_object_name": "STARLINK-35657",
        "meta_object_id": "2025-257V",
        "meta_epoch": "2025-12-06T04:21:53.182656",
        "meta_mean_motion": 15.48895026,
        "meta_eccentricity": 0.00049838,
        "meta_inclination": 53.1591,
        "meta_ra_of_asc_node": 295.1395,
        "meta_arg_of_pericenter": 230.5372,
        "meta_mean_anomaly": 129.5196,
        "meta_ephemeris_type": 0,
        "meta_classification_type": "U",
        "meta_norad_cat_id": 66399,
        "meta_element_set_no": 999,
        "meta_rev_at_epoch": 536,
        "meta_bstar": 0.0026164761,
        "meta_mean_motion_dot": 0.00145721,
        "meta_mean_motion_ddot": 0,
        "tle_line1": "1 66399U 25257V   25340.18186554  .00145721  00000+0  26165-2 0  9997",
        "tle_line2": "2 66399  53.1591 295.1395 0004983 230.5372 129.5196 15.48895026  5364"
      },
      "geometry": {
        "type": "Point",
        "coordinates": [
          138.2219494168397,
          -29.518910067485102
        ]
      }
    },
    {
      "type": "Feature",
      "properties": {
        "norad_id": 66400,
        "name": "STARLINK-35667",
        "group": "last-30-days",
        "lat": -32.02892937442126,
        "lon": 141.06462268159422,
        "alt_km": 422.9148758902338,
        "timestamp": "2025-12-06T14:35:35.908830+00:00",
        "meta_object_name": "STARLINK-35667",
        "meta_object_id": "2025-257W",
        "meta_epoch": "2025-12-06T04:21:09.466848",
        "meta_mean_motion": 15.49356007,
        "meta_eccentricity": 0.00018529,
        "meta_inclination": 53.1592,
        "meta_ra_of_asc_node": 295.135,
        "meta_arg_of_pericenter": 118.9172,
        "meta_mean_anomaly": 241.2023,
        "meta_ephemeris_type": 0,
        "meta_classification_type": "U",
        "meta_norad_cat_id": 66400,
        "meta_element_set_no": 999,
        "meta_rev_at_epoch": 536,
        "meta_bstar": -0.00068117353,
        "meta_mean_motion_dot": -0.00038213,
        "meta_mean_motion_ddot": 0,
        "tle_line1": "1 66400U 25257W   25340.18135957 -.00038213  00000+0 -68117-3 0  9994",
        "tle_line2": "2 66400  53.1592 295.1350 0001852 118.9172 241.2023 15.49356007  5361"
      },
      "geometry": {
        "type": "Point",
        "coordinates": [
          141.06462268159422,
          -32.02892937442126
        ]
      }
    },
    {
      "type": "Feature",
      "properties": {
        "norad_id": 66401,
        "name": "STARLINK-35668",
        "group": "last-30-days",
        "lat": -33.20920996753827,
        "lon": 142.48592628085433,
        "alt_km": 425.16790889600816,
        "timestamp": "2025-12-06T14:35:35.908842+00:00",
        "meta_object_name": "STARLINK-35668",
        "meta_object_id": "2025-257X",
        "meta_epoch": "2025-12-06T08:00:01.999872",
        "meta_mean_motion": 15.49728436,
        "meta_eccentricity": 0.00015575,
        "meta_inclination": 53.1587,
        "meta_ra_of_asc_node": 294.4065,
        "meta_arg_of_pericenter": 90.2703,
        "meta_mean_anomaly": 39.9269,
        "meta_ephemeris_type": 0,
        "meta_classification_type": "U",
        "meta_norad_cat_id": 66401,
        "meta_element_set_no": 999,
        "meta_rev_at_epoch": 546,
        "meta_bstar": -0.033578695,
        "meta_mean_motion_dot": -0.01694206,
        "meta_mean_motion_ddot": 0,
        "tle_line1": "1 66401U 25257X   25340.33335648 -.01694206  00000+0 -33579-1 0  9994",
        "tle_line2": "2 66401  53.1587 294.4065 0001557  90.2703  39.9269 15.49728436  5469"
      },
      "geometry": {
        "type": "Point",
        "coordinates": [
          142.48592628085433,
          -33.20920996753827
        ]
      }
    },
    {
      "type": "Feature",
      "properties": {
        "norad_id": 66402,
        "name": "STARLINK-35644",
        "group": "last-30-days",
        "lat": -33.3788734221123,
        "lon": 142.6932076130232,
        "alt_km": 422.7958970698546,
        "timestamp": "2025-12-06T14:35:35.908852+00:00",
        "meta_object_name": "STARLINK-35644",
        "meta_object_id": "2025-257Y",
        "meta_epoch": "2025-12-06T05:53:33.843840",
        "meta_mean_motion": 15.49361286,
        "meta_eccentricity": 7.923e-05,
        "meta_inclination": 53.1581,
        "meta_ra_of_asc_node": 294.8244,
        "meta_arg_of_pericenter": 85.5717,
        "meta_mean_anomaly": 274.5382,
        "meta_ephemeris_type": 0,
        "meta_classification_type": "U",
        "meta_norad_cat_id": 66402,
        "meta_element_set_no": 999,
        "meta_rev_at_epoch": 537,
        "meta_bstar": 0.0018840832,
        "meta_mean_motion_dot": 0.00105964,
        "meta_mean_motion_ddot": 0,
        "tle_line1": "1 66402U 25257Y   25340.24553060  .00105964  00000+0  18841-2 0  9996",
        "tle_line2": "2 66402  53.1581 294.8244 0000792  85.5717 274.5382 15.49361286  5378"
      },
      "geometry": {
        "type": "Point",
        "coordinates": [
          142.6932076130232,
          -33.3788734221123
        ]
      }
    }
  ]
}